202411211420 METAR COR LTFJ 211420Z 04016KT 9000 -SHRA BKN030 BKN070 08/06 Q1010 NOSIG=
202411211350 METAR LTFJ 211350Z 05018KT 6000 -SHRA FEW009 SCT015CB BKN030 08/07 Q1008 NOSIG=
202411211320 METAR LTFJ 211320Z 04023G34KT 6000 -SHRA FEW009 SCT015CB BKN030 08/07 Q1006 NOSIG=
202411211250 METAR COR LTFJ 211250Z 03025KT 6000 -SHRA FEW009 SCT015CB BKN030 09/08 Q1005 RETSRA NOSIG=
202411211220 METAR LTFJ 211220Z 03022KT 4500 -TSRA SCT015CB BKN030 BKN090 09/08 Q1005 RETSRA NOSIG=
202411211210 SPECI COR LTFJ 211210Z 02023KT 1300 1000SW R06L/P1500N R24R/P1500N R06R/P1500N R24L/P1500N +TSRA FEW009 SCT015CB BKN030 09/08 Q1005 BECMG TL1300 9999 NSW=
202411211203 SPECI LTFJ 211203Z 02024KT 2000 +TSRA FEW009 SCT015CB BKN030 10/08 Q1004 BECMG TL1300 9999 NSW=
202411211150 METAR LTFJ 211150Z 01018G30KT 330V050 7000 -TSRA SCT015CB BKN030 BKN090 13/10 Q1004 RESHRA WS R24R NOSIG=
202411211120 METAR COR LTFJ 211120Z 21010KT 9999 -SHRA SCT035 BKN100 17/14 Q1002 NOSIG=
202411211050 METAR LTFJ 211050Z 21012KT 9999 -SHRA SCT035 BKN100 16/13 Q1002 NOSIG=
202411211020 METAR LTFJ 211020Z 21011KT 9999 -SHRA SCT035 BKN100 16/13 Q1002 NOSIG=
202411210950 METAR LTFJ 210950Z 21013KT 170V230 9999 -SHRA SCT035 BKN100 16/13 Q1002 NOSIG=
202411210920 METAR LTFJ 210920Z 21016KT 9999 -SHRA SCT035 BKN100 18/12 Q1002 NOSIG=
202411210905 SPECI LTFJ 210905Z 20020KT 9999 -SHRA SCT035 BKN100 18/12 Q1002 NOSIG=
202411210850 METAR LTFJ 210850Z 20021G31KT 9999 SCT035 BKN100 18/11 Q1002 RESHRA NOSIG=
202411210820 METAR LTFJ 210820Z 20016KT 9999 -SHRA SCT035 BKN100 19/11 Q1002 WS R24L NOSIG=
202411210811 SPECI LTFJ 210811Z 19020KT 9999 -SHRA SCT040 BKN100 19/11 Q1002 WS R24L NOSIG=
202411210750 METAR LTFJ 210750Z 22018G29KT 9999 -SHRA SCT040 BKN100 19/10 Q1002 NOSIG=
202411210720 METAR LTFJ 210720Z 21019KT 9999 -SHRA SCT040 BKN100 20/10 Q1001 NOSIG=
202411210650 METAR LTFJ 210650Z 21017KT 9999 SCT040 BKN100 20/09 Q1001 NOSIG=
202411210647 SPECI LTFJ 210647Z 21020G30KT 9999 SCT040 BKN100 20/09 Q1001 NOSIG=
202411210620 METAR LTFJ 210620Z 22018KT 9999 SCT040 BKN100 20/09 Q1001 NOSIG=
202411210550 METAR LTFJ 210550Z 22018KT 9999 SCT040 BKN100 20/09 Q1001 NOSIG=
202411210520 METAR LTFJ 210520Z 21017KT 9999 SCT040 BKN120 19/09 Q1000 NOSIG=
202411210450 METAR LTFJ 210450Z 21017KT 9999 SCT040 BKN180 19/09 Q1000 NOSIG=
202411210420 METAR LTFJ 210420Z 20016KT 160V230 9999 SCT040 19/09 Q1000 NOSIG=
202411210350 METAR LTFJ 210350Z 20013KT 9999 SCT040 19/09 Q1001 NOSIG=
202411210320 METAR LTFJ 210320Z 20017G27KT 9999 SCT040 19/08 Q1001 NOSIG=
202411210250 METAR LTFJ 210250Z 20014KT 160V220 9999 SCT040 19/08 Q1001 NOSIG RMK RWY24R 21015KT RWY06R 19016KT RWY24L 19014KT 150V220=
202411210220 METAR LTFJ 210220Z 20012KT 9999 SCT040 19/08 Q1002 NOSIG=
202411210150 METAR LTFJ 210150Z 20014KT 9999 SCT040 19/08 Q1002 NOSIG=
202411210120 METAR LTFJ 210120Z 20014KT 9999 SCT040 19/08 Q1003 NOSIG=
202411210050 METAR LTFJ 210050Z 20014KT 9999 SCT040 18/08 Q1003 NOSIG=
202411210020 METAR LTFJ 210020Z 20014KT 9999 SCT040 18/08 Q1003 NOSIG=
202411202350 METAR LTFJ 202350Z 20011KT 9999 SCT040 18/08 Q1004 NOSIG=
202411202320 METAR LTFJ 202320Z 21013KT 9999 SCT040 18/08 Q1004 NOSIG=
202411202250 METAR LTFJ 202250Z 21013KT 9999 SCT040 18/08 Q1005 NOSIG RMK RWY24R 23016KT RWY06R 20015KT RWY24L 20013KT=
202411202220 METAR LTFJ 202220Z 20014KT 9999 SCT040 18/07 Q1005 NOSIG=
202411202150 METAR LTFJ 202150Z 20014KT 9999 SCT040 18/07 Q1005 NOSIG=
202411202120 METAR LTFJ 202120Z 20012KT 9999 SCT040 18/07 Q1006 NOSIG=
202411202050 METAR LTFJ 202050Z 21011KT 9999 SCT040 17/08 Q1006 NOSIG=
202411202020 METAR LTFJ 202020Z 22011KT 9999 SCT040 17/08 Q1006 NOSIG=
202411201950 METAR LTFJ 201950Z 20009KT 9999 SCT040 17/07 Q1006 NOSIG=
202411201920 METAR LTFJ 201920Z 20008KT 170V230 9999 SCT040 17/08 Q1006 NOSIG=
202411201850 METAR LTFJ 201850Z 19008KT 9999 SCT040 17/08 Q1007 NOSIG=
202411201820 METAR LTFJ 201820Z 20008KT 9999 SCT040 17/08 Q1007 NOSIG=
202411201750 METAR LTFJ 201750Z 20010KT 9999 SCT040 17/08 Q1007 NOSIG=
202411201720 METAR COR LTFJ 201720Z 19008KT 9999 SCT045 17/08 Q1007 NOSIG=
202411201650 METAR LTFJ 201650Z 19008KT 9999 FEW040 17/08 Q1008 NOSIG=
202411201620 METAR LTFJ 201620Z 20009KT 9999 SCT040 17/08 Q1008 NOSIG=
202411201550 METAR LTFJ 201550Z 20010KT 170V230 9999 SCT040 17/08 Q1008 NOSIG=
202411201520 METAR LTFJ 201520Z 20010KT 9999 SCT040 17/07 Q1008 NOSIG=
202411201450 METAR LTFJ 201450Z 20008KT 9999 SCT040 17/07 Q1008 NOSIG=
202411201420 METAR LTFJ 201420Z 19008KT 9999 SCT040 BKN090 17/07 Q1008 NOSIG=
202411201350 METAR LTFJ 201350Z 20008KT 9999 SCT040 BKN090 17/07 Q1009 NOSIG=
202411201320 METAR LTFJ 201320Z 19008KT 9999 SCT040 BKN090 18/08 Q1009 NOSIG=
202411201250 METAR LTFJ 201250Z 20010KT 9999 SCT040 SCT100 18/07 Q1009 NOSIG=
202411201220 METAR LTFJ 201220Z 20008KT 170V230 9999 SCT040 SCT100 18/08 Q1009 NOSIG=
202411201150 METAR LTFJ 201150Z 20008KT 170V230 9999 SCT040 SCT100 17/07 Q1010 NOSIG=
202411201120 METAR LTFJ 201120Z 20009KT 170V230 9999 FEW040 SCT120 18/06 Q1010 NOSIG=
202411201050 METAR LTFJ 201050Z 21007KT CAVOK 17/06 Q1010 NOSIG RMK RWY24R 21008KT RWY06R 20010KT RWY24L 20008KT=
202411201020 METAR LTFJ 201020Z 22008KT 170V250 CAVOK 17/06 Q1011 NOSIG=
202411200950 METAR LTFJ 200950Z 20008KT 170V240 CAVOK 17/06 Q1011 NOSIG=
202411200920 METAR LTFJ 200920Z 20007KT 160V230 CAVOK 16/06 Q1012 NOSIG=
202411200850 METAR LTFJ 200850Z 19008KT 150V220 CAVOK 15/06 Q1012 NOSIG=
202411200820 METAR LTFJ 200820Z 18009KT 160V220 CAVOK 15/07 Q1012 NOSIG=
202411200750 METAR LTFJ 200750Z 19009KT CAVOK 14/07 Q1013 NOSIG=
202411200720 METAR LTFJ 200720Z 19008KT 8000 NSC 13/08 Q1012 NOSIG=
202411200650 METAR COR LTFJ 200650Z 18006KT 7000 NSC 13/09 Q1013 NOSIG=
202411200620 METAR LTFJ 200620Z 19005KT 5000 BR NSC 11/09 Q1013 BECMG TL0650 9999 NSW=
202411200550 METAR LTFJ 200550Z 18004KT 4900 BR NSC 10/08 Q1013 BECMG TL0650 9999 NSW=
202411200520 METAR LTFJ 200520Z 20004KT 6000 NSC 09/08 Q1013 NOSIG=
202411200450 METAR LTFJ 200450Z 21004KT 6000 FEW012 09/08 Q1013 NOSIG=
202411200420 METAR LTFJ 200420Z 20004KT 170V240 6000 FEW012 09/08 Q1013 NOSIG=
202411200350 METAR LTFJ 200350Z 20005KT 6000 FEW008 09/08 Q1013 NOSIG=
202411200320 METAR LTFJ 200320Z VRB02KT 6000 FEW008 09/08 Q1013 NOSIG=
202411200250 METAR LTFJ 200250Z 00000KT 6000 FEW004 08/08 Q1013 NOSIG=
202411200220 METAR LTFJ 200220Z 00000KT 4800 BR FEW004 08/07 Q1014 BECMG 6000=
202411200150 METAR LTFJ 200150Z VRB01KT 4000 BR FEW004 07/06 Q1014 BECMG 6000=
202411200120 METAR LTFJ 200120Z 00000KT 2900 BR FEW004 08/07 Q1014 BECMG 6000=
202411200050 METAR LTFJ 200050Z 00000KT 4000 BR NSC 09/08 Q1015 TEMPO 2700=
202411200020 METAR LTFJ 200020Z 26002KT 4800 BR NSC 09/07 Q1015 TEMPO 2700=
202411192350 METAR LTFJ 192350Z 25002KT 6000 NSC 09/07 Q1015 NOSIG=
202411192320 METAR LTFJ 192320Z 00000KT 7000 NSC 08/06 Q1015 NOSIG=
202411192250 METAR LTFJ 192250Z VRB02KT 7000 NSC 07/06 Q1015 NOSIG=
202411192220 METAR LTFJ 192220Z VRB01KT 6000 NSC 09/07 Q1016 NOSIG=
202411192150 METAR LTFJ 192150Z VRB01KT CAVOK 08/06 Q1016 NOSIG=
202411192120 METAR LTFJ 192120Z 06002KT CAVOK 09/06 Q1016 NOSIG=
202411192050 METAR LTFJ 192050Z VRB02KT CAVOK 10/07 Q1016 NOSIG=
202411192020 METAR LTFJ 192020Z 06003KT CAVOK 10/06 Q1016 NOSIG=
202411191950 METAR LTFJ 191950Z 06004KT CAVOK 10/06 Q1016 NOSIG=
202411191920 METAR LTFJ 191920Z 05004KT 020V080 CAVOK 10/07 Q1017 NOSIG=
202411191850 METAR LTFJ 191850Z 04006KT CAVOK 11/07 Q1017 NOSIG=
202411191820 METAR LTFJ 191820Z 04006KT CAVOK 11/07 Q1017 NOSIG=
202411191750 METAR LTFJ 191750Z 03005KT CAVOK 11/06 Q1017 NOSIG=
202411191720 METAR LTFJ 191720Z 03006KT CAVOK 11/06 Q1017 NOSIG=
202411191650 METAR LTFJ 191650Z 02007KT CAVOK 11/06 Q1017 NOSIG=
202411191620 METAR LTFJ 191620Z 03007KT CAVOK 12/06 Q1017 NOSIG=
202411191550 METAR LTFJ 191550Z 02006KT CAVOK 12/06 Q1017 NOSIG=
202411191520 METAR LTFJ 191520Z 03006KT CAVOK 13/07 Q1017 NOSIG=
202411191450 METAR LTFJ 191450Z 22003KT CAVOK 13/06 Q1017 NOSIG=
202411191420 METAR LTFJ 191420Z 23003KT CAVOK 14/06 Q1017 NOSIG=
202411191350 METAR LTFJ 191350Z 25004KT CAVOK 15/07 Q1017 NOSIG=
202411191320 METAR LTFJ 191320Z 24005KT 9999 FEW030 15/07 Q1017 NOSIG=
202411191250 METAR LTFJ 191250Z 24005KT 9999 FEW030 15/07 Q1017 NOSIG=
202411191220 METAR LTFJ 191220Z 26004KT 220V330 9999 FEW030 16/06 Q1017 NOSIG=
202411191150 METAR LTFJ 191150Z VRB03KT 9999 FEW030 16/06 Q1017 NOSIG=
202411191120 METAR LTFJ 191120Z 17003KT 130V290 9999 FEW030 15/06 Q1017 NOSIG=
202411191050 METAR LTFJ 191050Z VRB03KT 9999 FEW030 16/07 Q1017 NOSIG=
202411191020 METAR LTFJ 191020Z VRB04KT 9999 FEW030 15/07 Q1018 NOSIG=
202411190950 METAR LTFJ 190950Z 24006KT 160V300 9999 FEW030 15/07 Q1018 NOSIG=
202411190920 METAR LTFJ 190920Z 26005KT 180V310 9999 FEW030 15/06 Q1018 NOSIG=
202411190850 METAR LTFJ 190850Z VRB05KT 9999 FEW030 14/06 Q1018 NOSIG=
202411190820 METAR LTFJ 190820Z 21004KT 150V260 9999 FEW030 14/07 Q1018 NOSIG=
202411190750 METAR LTFJ 190750Z 15004KT 120V180 9999 FEW030 13/07 Q1018 NOSIG=
202411190720 METAR LTFJ 190720Z VRB02KT 8000 FEW030 12/07 Q1018 NOSIG=
202411190650 METAR LTFJ 190650Z 12003KT 060V160 7000 FEW030 12/07 Q1018 NOSIG=
202411190620 METAR LTFJ 190620Z VRB01KT 9999 SCT030 12/07 Q1018 NOSIG=
202411190550 METAR LTFJ 190550Z 06003KT 7000 SCT030 10/06 Q1017 NOSIG=
202411190520 METAR LTFJ 190520Z VRB02KT 9999 SCT030 08/06 Q1017 NOSIG=
202411190450 METAR LTFJ 190450Z 00000KT 9999 FEW025 09/06 Q1017 NOSIG=
202411190420 METAR LTFJ 190420Z VRB01KT 7000 NSC 09/06 Q1017 NOSIG=
202411190350 METAR LTFJ 190350Z VRB01KT 7000 NSC 10/06 Q1016 NOSIG=
202411190320 METAR LTFJ 190320Z VRB02KT 7000 NSC 10/06 Q1016 NOSIG RMK RWY24R 00000KT RWY06R 03002KT RWY24L 00000KT=
202411190250 METAR LTFJ 190250Z 00000KT 7000 NSC 10/08 Q1016 NOSIG=
202411190220 METAR LTFJ 190220Z 34003KT 270V080 8000 NSC 10/08 Q1016 NOSIG=
202411190150 METAR LTFJ 190150Z 00000KT 7000 FEW038 11/09 Q1016 NOSIG=
202411190120 METAR LTFJ 190120Z 02002KT 6000 FEW020 BKN036 10/09 Q1016 NOSIG=
202411190050 METAR LTFJ 190050Z 07003KT 6000 FEW019 SCT036 09/08 Q1016 NOSIG=
202411190020 METAR LTFJ 190020Z 06003KT 6000 FEW017 SCT029 10/09 Q1016 NOSIG=
202411182350 METAR LTFJ 182350Z VRB02KT 9999 FEW013 BKN030 11/09 Q1016 NOSIG=
202411182320 METAR LTFJ 182320Z VRB01KT 9999 FEW013 BKN030 11/09 Q1015 NOSIG=
202411182250 METAR LTFJ 182250Z 00000KT 9999 FEW016 BKN030 11/09 Q1015 NOSIG=
202411182220 METAR LTFJ 182220Z 00000KT 9999 SCT015 BKN030 11/09 Q1015 NOSIG=
202411182150 METAR LTFJ 182150Z VRB01KT 9999 SCT027 11/09 Q1015 NOSIG=
202411182120 METAR LTFJ 182120Z 12002KT 9999 BKN030 12/09 Q1015 NOSIG=
202411182050 METAR LTFJ 182050Z 14002KT 9999 BKN030 12/10 Q1015 NOSIG=
202411182020 METAR LTFJ 182020Z 14002KT 9999 SCT019 SCT030 12/09 Q1015 NOSIG=
202411181950 METAR LTFJ 181950Z 15002KT 9999 SCT019 SCT030 12/09 Q1015 NOSIG=
202411181920 METAR LTFJ 181920Z 15002KT 9999 SCT019 SCT030 12/09 Q1015 NOSIG=
202411181850 METAR LTFJ 181850Z 18004KT 9999 SCT019 SCT030 12/10 Q1014 NOSIG=
202411181820 METAR LTFJ 181820Z 16004KT 9999 BKN015 SCT015 12/09 Q1014 NOSIG=
202411181750 METAR LTFJ 181750Z 14003KT 9999 BKN040 12/09 Q1014 NOSIG=
202411181720 METAR LTFJ 181720Z 16003KT 9999 SCT015 BKN040 12/09 Q1014 NOSIG=
202411181650 METAR LTFJ 181650Z VRB02KT 9999 SCT015 BKN040 12/09 Q1014 NOSIG=
202411181620 METAR LTFJ 181620Z VRB02KT 9999 SCT015 BKN040 12/08 Q1014 NOSIG=
202411181550 METAR LTFJ 181550Z 25003KT 9999 SCT015 BKN035 12/08 Q1014 NOSIG=
202411181520 METAR LTFJ 181520Z VRB02KT 9999 SCT015 BKN035 13/08 Q1014 NOSIG=
202411181450 METAR LTFJ 181450Z 28004KT 250V320 9999 SCT015 BKN035 13/08 Q1014 NOSIG=
202411181420 METAR LTFJ 181420Z 26004KT 220V280 9999 SCT015 BKN035 13/08 Q1013 NOSIG=
202411181350 METAR LTFJ 181350Z 25007KT 9999 SCT015 BKN035 13/08 Q1013 NOSIG=
202411181320 METAR LTFJ 181320Z 25005KT 230V300 9999 SCT015 BKN035 13/09 Q1013 NOSIG=
202411181250 METAR LTFJ 181250Z 25006KT 9999 SCT015 BKN035 13/09 Q1013 NOSIG=
202411181220 METAR LTFJ 181220Z 25007KT 9999 SCT015 BKN035 13/09 Q1013 NOSIG=
202411181150 METAR LTFJ 181150Z 24007KT 210V280 9999 SCT015 BKN035 13/09 Q1013 NOSIG=
202411181120 METAR LTFJ 181120Z 25006KT 180V270 9999 SCT015 BKN035 13/09 Q1012 NOSIG=
202411181050 METAR LTFJ 181050Z 23006KT 190V250 9999 SCT015 BKN035 13/09 Q1012 NOSIG=
202411181020 METAR LTFJ 181020Z 25007KT 220V280 9999 FEW009 BKN023 13/09 Q1013 NOSIG=
202411180950 METAR LTFJ 180950Z 25006KT 210V280 9999 SCT009 BKN023 14/09 Q1013 NOSIG=
202411180920 METAR LTFJ 180920Z 24006KT 9999 SCT009 BKN023 13/09 Q1013 NOSIG=
202411180850 METAR LTFJ 180850Z 23005KT 9999 SCT009 BKN023 13/10 Q1013 NOSIG=
202411180820 METAR LTFJ 180820Z VRB03KT 8000 SCT009 BKN023 12/10 Q1013 NOSIG=
202411180750 METAR LTFJ 180750Z 18003KT 140V220 7000 SCT009 BKN022 12/10 Q1013 RERA NOSIG=
202411180720 METAR LTFJ 180720Z VRB02KT 8000 -RA SCT009 BKN022 12/10 Q1013 REDZ NOSIG=
202411180709 SPECI LTFJ 180709Z 07003KT 8000 -DZ SCT009 BKN022 12/10 Q1013 NOSIG=
202411180650 METAR LTFJ 180650Z 15002KT 9999 FEW009 BKN022 12/10 Q1013 NOSIG=
202411180620 METAR LTFJ 180620Z 15002KT 9999 FEW009 BKN022 12/10 Q1013 NOSIG=
202411180550 METAR LTFJ 180550Z 07002KT 9999 FEW009 BKN022 12/10 Q1012 NOSIG=
202411180520 METAR LTFJ 180520Z 08003KT 040V100 9999 FEW009 BKN022 11/10 Q1012 NOSIG=
202411180450 METAR LTFJ 180450Z 07004KT 9999 FEW012 BKN025 11/10 Q1012 NOSIG=
202411180420 METAR LTFJ 180420Z 15003KT 9999 BKN027 11/10 Q1012 NOSIG=
202411180350 METAR LTFJ 180350Z VRB02KT 9999 BKN027 12/10 Q1011 NOSIG=
202411180320 METAR LTFJ 180320Z VRB02KT 9999 BKN024 12/10 Q1011 NOSIG=
202411180250 METAR LTFJ 180250Z 03004KT 360V070 9999 BKN028 11/10 Q1011 NOSIG=
202411180220 METAR LTFJ 180220Z 06003KT 010V090 9999 BKN024 11/10 Q1011 NOSIG=
202411180150 METAR LTFJ 180150Z 04003KT 9999 BKN024 11/10 Q1011 NOSIG=
202411180120 METAR LTFJ 180120Z 04004KT 9999 BKN024 11/10 Q1011 NOSIG=
202411180050 METAR LTFJ 180050Z 04004KT 9999 BKN020 11/10 Q1011 NOSIG=
202411180020 METAR LTFJ 180020Z 04004KT 9999 BKN020 12/10 Q1011 NOSIG=
202411172350 METAR LTFJ 172350Z 03004KT 9999 BKN020 12/10 Q1011 NOSIG=
202411172320 METAR LTFJ 172320Z 36006KT 9999 BKN020 12/10 Q1011 NOSIG=
202411172250 METAR LTFJ 172250Z 01005KT 9999 BKN020 12/10 Q1012 NOSIG=
202411172220 METAR LTFJ 172220Z 02003KT 9999 BKN020 12/10 Q1012 NOSIG=
202411172150 METAR LTFJ 172150Z 03003KT 350V070 9999 BKN020 12/10 Q1012 NOSIG=
202411172120 METAR LTFJ 172120Z 04004KT 9999 BKN020 12/10 Q1012 NOSIG=
202411172050 METAR LTFJ 172050Z 07002KT 9999 BKN025 12/09 Q1012 NOSIG=
202411172020 METAR LTFJ 172020Z VRB02KT 9999 BKN025 12/09 Q1012 NOSIG=
202411171950 METAR LTFJ 171950Z 04003KT 9999 BKN025 12/08 Q1012 NOSIG=
202411171920 METAR LTFJ 171920Z 02004KT 9999 BKN025 12/08 Q1012 NOSIG=
202411171850 METAR LTFJ 171850Z 03005KT 9999 BKN025 12/08 Q1012 NOSIG=
202411171820 METAR LTFJ 171820Z 03004KT 9999 BKN025 12/08 Q1012 NOSIG=
202411171750 METAR LTFJ 171750Z 03005KT 9999 BKN025 12/08 Q1012 NOSIG RMK RWY24R 03004KT RWY06R 04006KT RWY24L 04003KT=
202411171720 METAR LTFJ 171720Z 04006KT 9999 BKN030 12/08 Q1012 NOSIG=
202411171650 METAR LTFJ 171650Z 03007KT 9999 BKN030 12/08 Q1012 NOSIG=
202411171620 METAR LTFJ 171620Z 03008KT 9999 BKN023 12/08 Q1012 NOSIG=
202411171550 METAR LTFJ 171550Z 03008KT 9999 BKN023 12/08 Q1012 NOSIG=
202411171520 METAR LTFJ 171520Z 04007KT 9999 BKN023 12/08 Q1012 NOSIG=
202411171450 METAR LTFJ 171450Z 04009KT 9999 BKN023 12/08 Q1012 NOSIG=
202411171420 METAR LTFJ 171420Z 05010KT 9999 BKN023 12/08 Q1012 NOSIG=
202411171350 METAR LTFJ 171350Z 05010KT 9999 BKN023 12/08 Q1012 NOSIG=
202411171320 METAR LTFJ 171320Z 04011KT 9999 SCT017 BKN021 12/09 Q1012 NOSIG=
202411171250 METAR LTFJ 171250Z 04012KT 9999 SCT017 BKN021 12/08 Q1013 NOSIG=
202411171220 METAR LTFJ 171220Z 04011KT 9999 SCT017 BKN022 12/08 Q1013 NOSIG=
202411171150 METAR LTFJ 171150Z 05010KT 9999 SCT017 BKN022 13/08 Q1013 NOSIG=
202411171120 METAR LTFJ 171120Z 05012KT 9999 SCT017 BKN022 13/09 Q1013 NOSIG=
202411171050 METAR LTFJ 171050Z 05012KT 9999 SCT017 BKN022 13/09 Q1013 NOSIG=
202411171020 METAR LTFJ 171020Z 05011KT 9999 SCT013 BKN022 12/09 Q1013 NOSIG=
202411170950 METAR LTFJ 170950Z 06010KT 9999 SCT013 BKN022 12/09 Q1014 NOSIG=
202411170920 METAR LTFJ 170920Z 06013KT 9999 SCT013 BKN022 11/09 Q1014 NOSIG=
202411170850 METAR LTFJ 170850Z 05013KT 9999 BKN020 11/09 Q1015 NOSIG RMK RWY24R 07010KT RWY06R 05011KT RWY24L 05010KT=
202411170820 METAR LTFJ 170820Z 05014KT 9999 BKN020 11/08 Q1015 RERA NOSIG RMK RWY24R 05007KT RWY06R 04013KT RWY24L 04008KT=
202411170750 METAR LTFJ 170750Z 05012KT 9999 -RA BKN020 11/08 Q1015 NOSIG=
202411170720 METAR LTFJ 170720Z 05013KT 9999 -RA BKN020 11/08 Q1015 NOSIG=
202411170650 METAR LTFJ 170650Z 05013KT 9999 -RA BKN020 10/08 Q1015 NOSIG=
202411170620 METAR LTFJ 170620Z 05013KT 9999 -RA BKN020 11/07 Q1016 NOSIG=
202411170550 METAR LTFJ 170550Z 04015KT 9999 BKN020 11/07 Q1016 NOSIG=
202411170520 METAR LTFJ 170520Z 04014KT 9999 BKN020 11/07 Q1016 NOSIG=
202411170450 METAR LTFJ 170450Z 05014KT 9999 BKN021 11/07 Q1016 NOSIG=
202411170420 METAR LTFJ 170420Z 05014KT 9999 BKN021 10/07 Q1016 NOSIG=
202411170350 METAR LTFJ 170350Z 05015KT 9999 BKN023 10/07 Q1016 NOSIG=
202411170320 METAR LTFJ 170320Z 04015KT 9999 BKN023 10/07 Q1016 NOSIG=
202411170250 METAR LTFJ 170250Z 04015KT 9999 BKN023 10/07 Q1016 NOSIG=
202411170220 METAR LTFJ 170220Z 04015KT 9999 BKN023 10/07 Q1016 NOSIG=
202411170150 METAR LTFJ 170150Z 05014KT 9999 BKN023 10/07 Q1017 NOSIG=
202411170120 METAR LTFJ 170120Z 04014KT 9999 BKN020 10/07 Q1017 NOSIG=
202411170050 METAR LTFJ 170050Z 04014KT 9999 BKN020 10/07 Q1017 NOSIG=
202411170020 METAR LTFJ 170020Z 04015KT 9999 BKN034 10/07 Q1017 NOSIG=
202411162350 METAR LTFJ 162350Z 03015KT 9999 BKN034 10/07 Q1017 NOSIG=
202411162320 METAR LTFJ 162320Z 04016KT 9999 BKN034 10/07 Q1017 NOSIG=
202411162250 METAR LTFJ 162250Z 04014KT 9999 BKN034 10/07 Q1018 NOSIG=
202411162220 METAR LTFJ 162220Z 04013KT 9999 BKN034 10/07 Q1018 NOSIG=
202411162150 METAR LTFJ 162150Z 04015KT 9999 BKN034 11/07 Q1018 NOSIG=
202411162120 METAR LTFJ 162120Z 04015KT 9999 BKN034 11/07 Q1019 NOSIG=
202411162050 METAR LTFJ 162050Z 04014KT 9999 BKN034 10/07 Q1019 NOSIG=
202411162020 METAR LTFJ 162020Z 04013KT 9999 BKN034 10/07 Q1019 NOSIG=
202411161950 METAR LTFJ 161950Z 04014KT 9999 BKN033 10/07 Q1019 NOSIG=
202411161920 METAR LTFJ 161920Z 03013KT 9999 BKN033 10/08 Q1019 NOSIG=
202411161850 METAR LTFJ 161850Z 03013KT 9999 BKN033 10/08 Q1020 NOSIG=
202411161820 METAR LTFJ 161820Z 03013KT 9999 BKN033 10/07 Q1020 NOSIG=
202411161750 METAR LTFJ 161750Z 04012KT 9999 BKN033 10/07 Q1020 NOSIG=
202411161720 METAR LTFJ 161720Z 04013KT 9999 BKN033 10/07 Q1020 NOSIG=
202411161650 METAR LTFJ 161650Z 05010KT 9999 BKN033 10/07 Q1021 NOSIG=
202411161620 METAR LTFJ 161620Z 04012KT 9999 BKN033 10/07 Q1020 NOSIG=
202411161550 METAR LTFJ 161550Z 04012KT 9999 FEW017 BKN030 09/07 Q1020 NOSIG=
202411161520 METAR LTFJ 161520Z 04013KT 9999 FEW017 BKN030 10/07 Q1021 NOSIG=
202411161450 METAR LTFJ 161450Z 05014KT 9999 BKN028 10/06 Q1020 NOSIG=
202411161420 METAR LTFJ 161420Z 05013KT 9999 BKN028 10/06 Q1021 NOSIG=
202411161350 METAR LTFJ 161350Z 04018KT 9999 BKN032 10/06 Q1021 NOSIG=
202411161320 METAR LTFJ 161320Z 05015KT 9999 BKN032 11/06 Q1021 NOSIG=
202411161250 METAR LTFJ 161250Z 04018KT 9999 BKN030 11/05 Q1021 NOSIG=
202411161220 METAR LTFJ 161220Z 05017KT 9999 BKN030 11/05 Q1021 NOSIG=
202411161150 METAR LTFJ 161150Z 05017KT 9999 BKN030 12/05 Q1021 NOSIG=
202411161120 METAR LTFJ 161120Z 04017KT 9999 BKN030 12/04 Q1021 NOSIG=
202411161050 METAR LTFJ 161050Z 04017KT 9999 BKN030 13/05 Q1021 NOSIG=
202411161020 METAR LTFJ 161020Z 05014KT 9999 BKN030 11/05 Q1022 NOSIG=
202411160950 METAR LTFJ 160950Z 05015KT 9999 BKN030 11/04 Q1022 NOSIG=
202411160920 METAR LTFJ 160920Z 05017KT 9999 BKN030 10/04 Q1022 NOSIG=
202411160850 METAR LTFJ 160850Z 04016KT 9999 BKN028 11/06 Q1022 NOSIG=
202411160820 METAR LTFJ 160820Z 04016KT 9999 BKN028 10/06 Q1022 NOSIG=
202411160750 METAR LTFJ 160750Z 04015KT 9999 BKN030 10/07 Q1022 NOSIG=
202411160720 METAR LTFJ 160720Z 04017KT 9999 BKN035 10/07 Q1022 NOSIG=
202411160650 METAR LTFJ 160650Z 04017KT 9999 BKN040 09/07 Q1022 NOSIG=
202411160620 METAR LTFJ 160620Z 04017KT 9999 BKN040 09/06 Q1022 NOSIG=
202411160550 METAR LTFJ 160550Z 04016KT 9999 BKN025 BKN080 09/07 Q1021 NOSIG=
202411160520 METAR LTFJ 160520Z 05016KT 9999 BKN025 BKN080 09/07 Q1021 RERA NOSIG=
202411160450 METAR LTFJ 160450Z 04016KT 9999 -RA BKN025 BKN080 09/07 Q1021 NOSIG=
202411160420 METAR LTFJ 160420Z 04017KT 9999 BKN025 09/07 Q1021 RERA NOSIG=
202411160350 METAR LTFJ 160350Z 03016KT 9999 -RA BKN025 09/07 Q1021 NOSIG=
202411160320 METAR LTFJ 160320Z 04015KT 9999 BKN025 09/07 Q1020 NOSIG=
202411160250 METAR LTFJ 160250Z 03015KT 9999 BKN025 09/07 Q1020 NOSIG=
202411160220 METAR LTFJ 160220Z 03014KT 9999 SCT007 BKN025 09/07 Q1020 NOSIG=
202411160150 METAR LTFJ 160150Z 03015KT 9999 SCT007 BKN025 09/08 Q1020 NOSIG=
202411160120 METAR LTFJ 160120Z 03017KT 9999 BKN007 BKN025 09/08 Q1020 RERA NOSIG=
202411160050 METAR LTFJ 160050Z 03016KT 8000 -RA BKN007 BKN025 09/08 Q1020 NOSIG=
202411160020 METAR LTFJ 160020Z 03015KT 7000 -RA BKN007 BKN025 09/08 Q1020 NOSIG=
202411152350 METAR LTFJ 152350Z 03015KT 9000 -RA BKN007 BKN025 09/08 Q1020 NOSIG=
202411152320 METAR LTFJ 152320Z 03016KT 6000 -RA BKN007 BKN025 09/08 Q1020 NOSIG=
202411152250 METAR LTFJ 152250Z 03015KT 7000 -RA BKN007 BKN025 09/08 Q1020 NOSIG=
202411152220 METAR LTFJ 152220Z 03015KT 8000 -RA BKN007 BKN025 09/08 Q1019 NOSIG=
202411152150 METAR LTFJ 152150Z 03018KT 9000 -RA BKN007 BKN025 09/08 Q1019 NOSIG=
202411152120 METAR LTFJ 152120Z 03017KT 8000 -RA BKN007 BKN025 09/08 Q1019 NOSIG=
202411152050 METAR LTFJ 152050Z 03018KT 8000 -RA BKN007 BKN025 10/08 Q1019 NOSIG=
202411152020 METAR LTFJ 152020Z 02018KT 7000 -RA BKN007 BKN025 10/09 Q1019 NOSIG=
202411151950 METAR LTFJ 151950Z 02016KT 8000 -RA BKN007 BKN025 10/09 Q1019 NOSIG=
202411151920 METAR LTFJ 151920Z 02016KT 9999 -RA BKN007 BKN025 10/09 Q1019 NOSIG=
202411151850 METAR LTFJ 151850Z 03015KT 9999 -RA BKN007 BKN025 10/09 Q1018 NOSIG=
202411151820 METAR LTFJ 151820Z 03016KT 9999 BKN007 BKN025 11/10 Q1018 RERA NOSIG=
202411151750 METAR LTFJ 151750Z 03016KT 9999 -RA BKN007 BKN025 11/10 Q1018 NOSIG=
202411151720 METAR LTFJ 151720Z 02015KT 9999 -RA BKN007 BKN025 11/10 Q1018 NOSIG=
202411151650 METAR LTFJ 151650Z 02015KT 7000 -RA BKN007 BKN025 11/10 Q1017 NOSIG=
202411151620 METAR LTFJ 151620Z 02017KT 9999 -RA BKN007 BKN025 11/10 Q1017 NOSIG=
202411151550 METAR LTFJ 151550Z 02016KT 9999 -RA BKN007 BKN025 11/10 Q1017 NOSIG=
202411151520 METAR LTFJ 151520Z 01015KT 9999 -RA BKN007 BKN025 11/10 Q1016 NOSIG=
202411151450 METAR LTFJ 151450Z 01014KT 8000 -RA BKN007 BKN025 11/10 Q1016 NOSIG=
202411151420 METAR LTFJ 151420Z 01014KT 9999 -RA BKN007 BKN025 12/10 Q1016 NOSIG=
202411151350 METAR LTFJ 151350Z 01012KT 9999 -RA BKN007 BKN025 12/11 Q1016 NOSIG=
202411151320 METAR LTFJ 151320Z 01011KT 340V040 9999 -RA BKN007 BKN025 13/11 Q1016 NOSIG RMK RWY24R 02010KT RWY06R 36011KT RWY24L 36013KT=
202411151301 SPECI LTFJ 151301Z 01012KT 9999 -RA BKN007 BKN025 13/11 Q1016 NOSIG=
202411151250 METAR LTFJ 151250Z 02012KT 9999 BKN008 BKN025 13/11 Q1016 NOSIG=
202411151220 METAR LTFJ 151220Z 01010KT 340V040 9999 BKN009 BKN025 13/11 Q1016 NOSIG=
202411151150 METAR LTFJ 151150Z 02008KT 350V060 9999 BKN009 BKN025 13/11 Q1016 NOSIG RMK RWY24R 01010KT RWY06R 36010KT RWY24L 36009KT=
202411151120 METAR LTFJ 151120Z 36008KT 330V030 9999 BKN009 BKN025 14/11 Q1016 NOSIG=
202411151050 METAR LTFJ 151050Z 36008KT 9999 BKN010 BKN025 14/11 Q1016 NOSIG=
202411151020 METAR LTFJ 151020Z 01006KT 330V050 9999 BKN010 BKN025 14/11 Q1016 NOSIG=
202411150950 METAR LTFJ 150950Z 03006KT 9999 BKN010 BKN025 14/12 Q1016 RERA NOSIG=
202411150920 METAR LTFJ 150920Z 03006KT 8000 -RA BKN010 BKN025 14/12 Q1016 NOSIG=
202411150850 METAR LTFJ 150850Z 04007KT 4800 -RA BR BKN010 BKN025 13/12 Q1016 NOSIG=
202411150820 METAR LTFJ 150820Z 03006KT 360V060 4500 -RA BR BKN005 BKN018 13/12 Q1017 NOSIG=
202411150750 METAR LTFJ 150750Z 02006KT 4000 -RA BR BKN008 BKN018 13/12 Q1016 NOSIG=
202411150720 METAR LTFJ 150720Z 02006KT 3200 -RA BR BKN008 BKN018 13/12 Q1016 NOSIG=
202411150653 SPECI LTFJ 150653Z 02005KT 340V060 2500 -RA BR BKN008 BKN025 13/12 Q1016 NOSIG=
202411150650 METAR LTFJ 150650Z 02006KT 340V050 7000 2400NE -RA FEW009 BKN018 13/11 Q1016 NOSIG=
202411150620 METAR LTFJ 150620Z 03004KT 350V060 7000 -RA FEW009 BKN025 13/12 Q1016 NOSIG=
202411150550 METAR LTFJ 150550Z 05004KT 8000 -RA FEW009 BKN025 13/12 Q1016 NOSIG=
202411150520 METAR LTFJ 150520Z 06003KT 010V080 9999 FEW009 BKN025 13/11 Q1016 RERA NOSIG RMK RWY24R VRB02KT RWY06R 07003KT RWY24L 04003KT=
202411150450 METAR LTFJ 150450Z 05004KT 7000 -RA FEW009 BKN025 12/11 Q1016 NOSIG=
202411150420 METAR LTFJ 150420Z 04004KT 350V070 9999 -RA FEW009 BKN025 13/11 Q1016 NOSIG=
202411150350 METAR LTFJ 150350Z 03004KT 350V060 9999 BKN023 12/11 Q1015 NOSIG=
202411150320 METAR LTFJ 150320Z 03004KT 9999 BKN023 13/11 Q1015 NOSIG=
202411150250 METAR LTFJ 150250Z 01004KT 330V050 9999 BKN022 13/11 Q1015 NOSIG=
202411150220 METAR LTFJ 150220Z 02004KT 330V050 9999 BKN022 12/11 Q1015 RERA NOSIG=
202411150150 METAR LTFJ 150150Z 04003KT 8000 -RA BKN023 12/11 Q1015 NOSIG=
202411150120 METAR LTFJ 150120Z 04006KT 7000 -RA BKN023 12/11 Q1015 NOSIG=
202411150050 METAR LTFJ 150050Z 04005KT 7000 -RA BKN023 12/11 Q1016 RERA NOSIG=
202411150020 METAR LTFJ 150020Z 04006KT 4500 RA BR BKN023 12/11 Q1016 BECMG TL0120 9999 NSW=
202411150010 SPECI LTFJ 150010Z 01007KT 4500 RA BR BKN023 12/11 Q1016 BECMG TL0100 9999 NSW=
202411142350 METAR LTFJ 142350Z 03004KT 9999 -RA BKN030 12/11 Q1016 NOSIG=
202411142320 METAR LTFJ 142320Z 02006KT 9999 -RA BKN030 12/11 Q1016 NOSIG RMK RWY24R 02005KT RWY06R 01007KT RWY24L 02005KT=
202411142250 METAR LTFJ 142250Z 03007KT 9999 -RA BKN030 12/11 Q1016 NOSIG RMK RWY24R 03006KT RWY06R 02008KT RWY24L 01005KT=
202411142220 METAR LTFJ 142220Z 04006KT 9999 -RA BKN030 12/11 Q1017 NOSIG=
202411142150 METAR LTFJ 142150Z 04006KT 9999 -RA BKN030 12/11 Q1017 NOSIG=
202411142120 METAR LTFJ 142120Z 04007KT 9999 -RA BKN030 12/11 Q1017 NOSIG=
202411142050 METAR LTFJ 142050Z 04008KT 9999 -RA BKN030 12/11 Q1017 RERA NOSIG=
202411142020 METAR LTFJ 142020Z 04007KT 7000 RA BKN030 13/11 Q1018 BECMG TL2120 NSW=
202411141950 METAR LTFJ 141950Z 03007KT 9999 -RA BKN030 13/11 Q1018 NOSIG=
202411141920 METAR LTFJ 141920Z 03007KT 9999 -RA BKN030 13/11 Q1018 NOSIG=
202411141911 SPECI LTFJ 141911Z 02007KT 9999 -RA BKN030 13/11 Q1018 NOSIG=
202411141850 METAR LTFJ 141850Z 03008KT 9999 BKN030 13/11 Q1018 NOSIG=
202411141820 METAR LTFJ 141820Z 03007KT 9999 SCT030 14/11 Q1018 NOSIG=
202411141750 METAR LTFJ 141750Z 02007KT 9999 SCT030 13/11 Q1018 NOSIG=
202411141720 METAR LTFJ 141720Z 02008KT 9999 SCT030 13/11 Q1018 NOSIG=
202411141650 METAR LTFJ 141650Z 04009KT 9999 SCT030 13/11 Q1018 NOSIG=
202411141620 METAR LTFJ 141620Z 04009KT 9999 SCT030 14/11 Q1018 NOSIG=
202411141550 METAR LTFJ 141550Z 04009KT 9999 SCT030 14/11 Q1019 NOSIG=
202411141520 METAR LTFJ 141520Z 04011KT 9999 SCT030 14/11 Q1018 NOSIG=
202411141450 METAR LTFJ 141450Z 04011KT 9999 SCT030 14/11 Q1018 NOSIG=
202411141420 METAR LTFJ 141420Z 05012KT 9999 BKN030 15/10 Q1019 NOSIG=
202411141350 METAR LTFJ 141350Z 04011KT 9999 BKN030 15/10 Q1019 NOSIG=
202411141320 METAR LTFJ 141320Z 06009KT 9999 BKN030 16/09 Q1019 NOSIG=
202411141250 METAR LTFJ 141250Z 05009KT 9999 BKN030 16/09 Q1019 NOSIG=
202411141220 METAR LTFJ 141220Z 06008KT 020V090 9999 BKN030 17/10 Q1019 NOSIG=
202411141150 METAR LTFJ 141150Z 05009KT 9999 BKN029 17/09 Q1019 NOSIG=
202411141120 METAR LTFJ 141120Z 06009KT 9999 BKN023 17/10 Q1020 NOSIG=
202411141050 METAR LTFJ 141050Z 06007KT 030V090 9999 BKN023 16/10 Q1020 NOSIG RMK RWY24R 08007KT RWY06R 05009KT RWY24L 05008KT 010V080=
202411141020 METAR LTFJ 141020Z 06007KT 030V090 9999 BKN023 16/10 Q1020 NOSIG=
202411140950 METAR LTFJ 140950Z 05008KT 010V080 9999 BKN023 16/10 Q1021 NOSIG=
202411140920 METAR LTFJ 140920Z 07007KT 020V090 9999 SCT023 15/10 Q1022 NOSIG RMK RWY24R 07005KT 030V100 RWY06R 03007KT RWY24L 03006KT=
202411140850 METAR LTFJ 140850Z 06008KT 020V090 9999 BKN013 15/10 Q1022 NOSIG RMK RWY24R 06006KT 030V100 RWY06R 05007KT RWY24L 05006KT 350V070=
202411140820 METAR LTFJ 140820Z 08009KT 9999 BKN013 14/11 Q1022 NOSIG=
202411140750 METAR LTFJ 140750Z 04011KT 9999 BKN013 14/11 Q1022 NOSIG=
202411140720 METAR LTFJ 140720Z 04011KT 9999 BKN013 13/11 Q1022 NOSIG=
202411140650 METAR LTFJ 140650Z 03008KT 9999 BKN013 12/10 Q1023 NOSIG=
202411140620 METAR LTFJ 140620Z 05008KT 9999 BKN013 12/10 Q1023 NOSIG=
202411140550 METAR LTFJ 140550Z 04008KT 9999 OVC013 12/10 Q1023 NOSIG=
202411140520 METAR LTFJ 140520Z 03008KT 9999 BKN013 12/10 Q1023 NOSIG=
202411140450 METAR LTFJ 140450Z 03008KT 9999 BKN013 12/10 Q1023 NOSIG=
202411140420 METAR LTFJ 140420Z 02009KT 9999 BKN013 12/10 Q1022 NOSIG=
202411140350 METAR LTFJ 140350Z 03009KT 9999 BKN015 12/10 Q1022 NOSIG=
202411140320 METAR LTFJ 140320Z 03009KT 9999 BKN015 12/10 Q1022 NOSIG=
202411140250 METAR LTFJ 140250Z 03010KT 9999 BKN020 12/10 Q1022 NOSIG=
202411140220 METAR LTFJ 140220Z 03009KT 9999 BKN020 12/11 Q1023 NOSIG=
202411140150 METAR LTFJ 140150Z 03009KT 9999 BKN020 12/11 Q1023 NOSIG=
202411140120 METAR LTFJ 140120Z 04009KT 9999 BKN020 12/11 Q1023 NOSIG=
202411140050 METAR LTFJ 140050Z 03008KT 9999 SCT018 BKN030 12/11 Q1023 NOSIG=
202411140020 METAR LTFJ 140020Z 03008KT 9999 SCT016 BKN033 12/11 Q1023 NOSIG=
202411132350 METAR LTFJ 132350Z 04009KT 9999 FEW014 BKN033 12/11 Q1023 NOSIG=
202411132320 METAR LTFJ 132320Z 03009KT 9999 FEW014 BKN033 12/11 Q1023 NOSIG=
202411132250 METAR LTFJ 132250Z 03010KT 9999 BKN030 12/10 Q1024 NOSIG=
202411132220 METAR LTFJ 132220Z 02009KT 9999 BKN033 12/11 Q1024 NOSIG=
202411132150 METAR LTFJ 132150Z 02012KT 9999 BKN034 12/10 Q1024 NOSIG=
202411132120 METAR LTFJ 132120Z 03010KT 9999 BKN034 12/10 Q1024 NOSIG=
202411132050 METAR LTFJ 132050Z 03011KT 9999 FEW020 BKN038 12/11 Q1024 NOSIG=
202411132020 METAR LTFJ 132020Z 03012KT 9999 SCT019 BKN036 12/10 Q1024 NOSIG=
202411131950 METAR LTFJ 131950Z 03011KT 9999 SCT011 BKN039 12/10 Q1024 NOSIG=
202411131920 METAR LTFJ 131920Z 03014KT 9999 SCT006 BKN039 12/10 Q1024 NOSIG=
202411131850 METAR LTFJ 131850Z 03013KT 9999 SCT008 BKN039 12/11 Q1023 NOSIG=
202411131820 METAR LTFJ 131820Z 03012KT 9999 SCT008 BKN039 12/10 Q1024 NOSIG=
202411131750 METAR LTFJ 131750Z 03015KT 9999 SCT008 BKN036 12/10 Q1024 NOSIG=
202411131720 METAR LTFJ 131720Z 03016KT 9999 FEW008 BKN030 BKN090 12/10 Q1023 NOSIG=
202411131650 METAR LTFJ 131650Z 02015KT 9999 FEW008 BKN030 BKN090 12/11 Q1023 RESHRA NOSIG=
202411131628 SPECI LTFJ 131628Z 02014KT 9999 FEW008 BKN030 BKN090 13/11 Q1023 RESHRA NOSIG=
202411131620 METAR LTFJ 131620Z 02013KT 9999 -SHRA FEW008 BKN030 BKN090 13/11 Q1023 NOSIG=
202411131550 METAR LTFJ 131550Z 02014KT 9999 -SHRA FEW017 BKN030 BKN090 13/11 Q1023 NOSIG=
202411131520 METAR LTFJ 131520Z 02011KT 9999 -SHRA FEW017 BKN030 BKN090 14/11 Q1023 NOSIG RMK RWY24R 03008KT RWY06R 02011KT RWY24L 02008KT=
202411131450 METAR COR LTFJ 131450Z 03010KT 9999 -SHRA BKN026 BKN090 14/11 Q1023 NOSIG=
202411131420 METAR LTFJ 131420Z 03010KT 9999 -SHRA BKN023 BKN090 15/11 Q1023 NOSIG=
202411131354 SPECI LTFJ 131354Z 02010KT 9999 -SHRA BKN023 BKN090 15/11 Q1023 NOSIG=
202411131350 METAR LTFJ 131350Z 04009KT 360V060 9999 BKN023 BKN090 15/11 Q1023 NOSIG=
202411131320 METAR LTFJ 131320Z 03008KT 360V060 9999 BKN023 BKN090 15/10 Q1023 NOSIG=
202411131250 METAR LTFJ 131250Z 04007KT 9999 BKN023 BKN090 16/11 Q1023 NOSIG RMK RWY24R 04008KT RWY06R 36007KT RWY24L 02008KT=
202411131220 METAR LTFJ 131220Z 03006KT 350V060 9999 SCT023 BKN090 16/11 Q1023 NOSIG=
202411131150 METAR LTFJ 131150Z VRB03KT 9999 SCT023 BKN090 16/11 Q1023 NOSIG RMK RWY24R 03007KT RWY06R 24004KT 220V280 RWY24L 01008KT 340V040=
202411131120 METAR LTFJ 131120Z 05005KT 330V070 9999 SCT023 BKN090 16/11 Q1023 NOSIG=
202411131050 METAR LTFJ 131050Z 04007KT 360V070 9999 SCT027 BKN090 17/11 Q1023 NOSIG=
202411131020 METAR LTFJ 131020Z 04007KT 360V070 9999 SCT027 BKN090 16/11 Q1023 NOSIG=
202411130950 METAR COR LTFJ 130950Z 04006KT 360V060 9999 SCT027 BKN090 16/11 Q1024 RESHRA NOSIG=
202411130932 SPECI LTFJ 130932Z 04006KT 360V080 9999 -SHRA FEW019 SCT035 BKN100 16/11 Q1024 NOSIG=
202411130920 METAR LTFJ 130920Z 07007KT 020V090 9999 FEW019 SCT035 BKN100 16/11 Q1024 NOSIG=
202411130850 METAR LTFJ 130850Z 03007KT 010V070 9999 FEW019 SCT035 BKN100 16/11 Q1024 NOSIG=
202411130820 METAR LTFJ 130820Z 04007KT 9999 FEW035 BKN100 15/11 Q1024 NOSIG RMK RWY24R 03004KT 310V120 RWY06R 02008KT RWY24L 02006KT=
202411130750 METAR LTFJ 130750Z 05007KT 9999 FEW035 BKN100 15/10 Q1024 NOSIG=
202411130720 METAR LTFJ 130720Z 04007KT 010V070 9999 FEW035 BKN100 15/10 Q1024 NOSIG=
202411130650 METAR LTFJ 130650Z 05008KT 9999 FEW035 BKN100 14/10 Q1024 NOSIG=
202411130620 METAR LTFJ 130620Z 04007KT 9999 SCT035 BKN100 13/10 Q1024 NOSIG=
202411130550 METAR LTFJ 130550Z 03007KT 9999 SCT035 BKN100 13/10 Q1024 NOSIG=
202411130520 METAR LTFJ 130520Z 03008KT 9999 SCT035 BKN100 12/10 Q1024 NOSIG=
202411130450 METAR LTFJ 130450Z 02007KT 9999 SCT035 BKN100 12/10 Q1024 NOSIG=
202411130420 METAR LTFJ 130420Z 04008KT 9999 FEW035 BKN100 12/10 Q1023 NOSIG=
202411130350 METAR LTFJ 130350Z 01006KT 9999 FEW035 BKN100 12/10 Q1024 NOSIG=
202411130320 METAR LTFJ 130320Z 02006KT 9999 FEW035 BKN100 12/10 Q1023 NOSIG=
202411130250 METAR LTFJ 130250Z 03009KT 9999 FEW035 BKN100 11/10 Q1023 NOSIG=
202411130220 METAR LTFJ 130220Z 04008KT 9999 FEW035 BKN100 11/10 Q1023 NOSIG=
202411130150 METAR LTFJ 130150Z 03008KT 9999 FEW035 SCT200 11/10 Q1023 NOSIG=
202411130120 METAR LTFJ 130120Z 04007KT 9999 FEW035 SCT200 11/09 Q1024 NOSIG=
202411130050 METAR LTFJ 130050Z 03007KT 9999 FEW035 SCT200 11/10 Q1024 NOSIG=
202411130020 METAR LTFJ 130020Z 03009KT 9999 FEW035 SCT200 11/10 Q1024 NOSIG=
202411122350 METAR LTFJ 122350Z 04008KT 9999 FEW035 SCT200 11/10 Q1024 NOSIG=
202411122320 METAR LTFJ 122320Z 04010KT 9999 FEW035 SCT200 11/10 Q1024 NOSIG=
202411122250 METAR LTFJ 122250Z 04008KT 9999 FEW035 SCT200 11/10 Q1024 NOSIG=
202411122220 METAR LTFJ 122220Z 03010KT 9999 FEW035 SCT200 12/10 Q1024 NOSIG=
202411122150 METAR LTFJ 122150Z 04010KT 9999 SCT035 BKN200 12/10 Q1024 NOSIG=
202411122120 METAR LTFJ 122120Z 03012KT 9999 SCT035 BKN200 12/10 Q1024 NOSIG=
202411122050 METAR LTFJ 122050Z 04011KT 9999 SCT035 BKN200 13/10 Q1024 NOSIG=
202411122020 METAR LTFJ 122020Z 04011KT 9999 SCT035 BKN200 13/10 Q1024 NOSIG=
202411121950 METAR LTFJ 121950Z 04010KT 9999 SCT035 BKN200 13/10 Q1024 NOSIG=
202411121920 METAR LTFJ 121920Z 04010KT 9999 SCT030 BKN200 13/10 Q1024 NOSIG=
202411121850 METAR LTFJ 121850Z 04011KT 9999 SCT030 BKN200 13/10 Q1024 NOSIG=
202411121820 METAR LTFJ 121820Z 04011KT 9999 SCT030 BKN200 13/11 Q1024 NOSIG=
202411121750 METAR LTFJ 121750Z 04012KT 9999 SCT030 BKN200 13/11 Q1024 NOSIG=
202411121720 METAR LTFJ 121720Z 04011KT 9999 SCT030 BKN200 13/11 Q1024 NOSIG=
202411121650 METAR LTFJ 121650Z 04012KT 9999 SCT030 BKN200 13/11 Q1024 NOSIG=
202411121620 METAR LTFJ 121620Z 04013KT 9999 SCT030 BKN200 14/11 Q1024 NOSIG=
202411121550 METAR LTFJ 121550Z 04012KT 9999 SCT030 BKN200 14/11 Q1024 NOSIG=
202411121520 METAR LTFJ 121520Z 04013KT 9999 BKN026 14/11 Q1024 NOSIG=
202411121450 METAR LTFJ 121450Z 05014KT 9999 BKN026 14/11 Q1023 NOSIG=
202411121420 METAR LTFJ 121420Z 05014KT 9999 BKN026 15/10 Q1023 NOSIG=
202411121350 METAR LTFJ 121350Z 04016KT 9999 BKN026 15/10 Q1023 NOSIG=
202411121320 METAR LTFJ 121320Z 04014KT 9999 BKN026 16/11 Q1023 NOSIG=
202411121250 METAR LTFJ 121250Z 04014KT 9999 BKN026 16/11 Q1023 NOSIG=
202411121220 METAR LTFJ 121220Z 05013KT 9999 SCT026 17/11 Q1022 NOSIG=
202411121150 METAR LTFJ 121150Z 06012KT 9999 SCT026 18/11 Q1023 NOSIG=
202411121120 METAR LTFJ 121120Z 08012KT 9999 SCT026 17/10 Q1023 NOSIG=
202411121050 METAR LTFJ 121050Z 08012KT 9999 SCT025 16/10 Q1023 NOSIG=
202411121020 METAR LTFJ 121020Z 07014KT 9999 SCT025 17/11 Q1023 NOSIG=
202411120950 METAR LTFJ 120950Z 07012KT 9999 FEW018 BKN025 16/11 Q1023 NOSIG=
202411120920 METAR LTFJ 120920Z 07013KT 9999 FEW018 BKN025 15/11 Q1023 NOSIG=
202411120850 METAR LTFJ 120850Z 06012KT 9999 SCT017 BKN022 16/11 Q1024 NOSIG=
202411120820 METAR LTFJ 120820Z 05011KT 020V080 9999 SCT015 BKN022 16/11 Q1024 NOSIG=
202411120750 METAR LTFJ 120750Z 05012KT 9999 SCT015 BKN022 15/11 Q1024 NOSIG=
202411120720 METAR LTFJ 120720Z 04010KT 9999 BKN018 15/11 Q1024 NOSIG=
202411120650 METAR LTFJ 120650Z 04009KT 9999 BKN018 14/11 Q1024 NOSIG RMK RWY24R 03006KT RWY06R 03008KT RWY24L 02007KT=
202411120620 METAR LTFJ 120620Z 04009KT 9999 FEW017 SCT030 13/11 Q1023 NOSIG=
202411120550 METAR LTFJ 120550Z 04010KT 9999 BKN025 12/10 Q1023 NOSIG=
202411120520 METAR LTFJ 120520Z 05010KT 9999 BKN025 12/10 Q1023 NOSIG=
202411120450 METAR LTFJ 120450Z 04009KT 9999 BKN025 12/10 Q1023 NOSIG=
202411120420 METAR LTFJ 120420Z 03008KT 9999 SCT025 12/10 Q1023 NOSIG RMK RWY24R 04005KT RWY06R 03008KT RWY24L 05005KT=
202411120350 METAR LTFJ 120350Z 03008KT 9999 SCT035 12/10 Q1023 NOSIG=
202411120320 METAR LTFJ 120320Z 03010KT 9999 SCT035 12/10 Q1022 NOSIG=
202411120250 METAR LTFJ 120250Z 04010KT 9999 SCT035 12/10 Q1022 NOSIG=
202411120220 METAR LTFJ 120220Z 05009KT 9999 SCT035 12/10 Q1022 NOSIG RMK RWY24R 05006KT RWY06R 04009KT RWY24L 04006KT=
202411120150 METAR LTFJ 120150Z 04010KT 9999 SCT035 12/10 Q1022 NOSIG=
202411120120 METAR LTFJ 120120Z 04009KT 9999 BKN021 12/10 Q1022 NOSIG=
202411120050 METAR LTFJ 120050Z 04010KT 9999 BKN017 12/10 Q1023 NOSIG RMK RWY24R 05006KT RWY06R 03010KT RWY24L 03007KT=
202411120020 METAR LTFJ 120020Z 04009KT 9999 FEW015 BKN025 13/10 Q1023 NOSIG=
202411112350 METAR LTFJ 112350Z 05009KT 9999 FEW015 BKN025 13/10 Q1023 NOSIG RMK RWY24R 05005KT RWY06R 03010KT RWY24L 03006KT=
202411112320 METAR LTFJ 112320Z 04010KT 9999 FEW015 BKN025 13/10 Q1023 NOSIG=
202411112250 METAR LTFJ 112250Z 03007KT 9999 FEW015 BKN025 13/10 Q1023 NOSIG RMK RWY24R 03007KT RWY06R 02008KT RWY24L 02007KT=
202411112220 METAR LTFJ 112220Z 05010KT 9999 FEW015 BKN025 13/10 Q1023 NOSIG RMK RWY24R 06007KT RWY06R 04010KT RWY24L 04007KT=
202411112150 METAR LTFJ 112150Z 06010KT 9999 FEW015 BKN025 13/10 Q1023 NOSIG=
202411112120 METAR LTFJ 112120Z 06009KT 9999 FEW015 BKN025 13/10 Q1023 NOSIG=
202411112050 METAR LTFJ 112050Z 05009KT 9999 FEW015 BKN025 13/10 Q1023 NOSIG=
202411112020 METAR LTFJ 112020Z 05009KT 9999 SCT025 13/11 Q1023 NOSIG=
202411111950 METAR LTFJ 111950Z 06012KT 9999 SCT025 13/11 Q1023 NOSIG=
202411111920 METAR LTFJ 111920Z 05011KT 9999 SCT025 13/11 Q1023 NOSIG=
202411111850 METAR LTFJ 111850Z 05011KT 9999 SCT035 BKN080 13/11 Q1023 NOSIG=
202411111820 METAR LTFJ 111820Z 04009KT 9999 SCT035 BKN080 13/11 Q1023 NOSIG=
202411111750 METAR LTFJ 111750Z 04008KT 9999 SCT035 BKN080 13/11 Q1023 NOSIG=
202411111720 METAR LTFJ 111720Z 04009KT 9999 SCT035 BKN080 13/11 Q1022 NOSIG=
202411111650 METAR LTFJ 111650Z 04009KT 9999 SCT030 BKN080 13/10 Q1022 NOSIG=
202411111620 METAR LTFJ 111620Z 05008KT 9999 SCT030 BKN080 13/10 Q1022 NOSIG RMK RWY24R 05005KT RWY06R 05009KT RWY24L 05006KT=
202411111550 METAR LTFJ 111550Z 04010KT 9999 SCT030 BKN080 14/10 Q1022 NOSIG=
202411111520 METAR LTFJ 111520Z 04010KT 9999 BKN028 15/10 Q1022 NOSIG=
202411111450 METAR LTFJ 111450Z 05009KT 9999 BKN028 15/09 Q1022 NOSIG RMK RWY24R 07007KT RWY06R 05008KT RWY24L 05008KT=
202411111420 METAR LTFJ 111420Z 08010KT 050V110 9999 BKN028 16/09 Q1022 NOSIG=
202411111350 METAR LTFJ 111350Z 14006KT 100V200 9999 BKN028 15/11 Q1021 NOSIG RMK RWY24R 11008KT RWY06R 08010KT RWY24L 10009KT=
202411111320 METAR LTFJ 111320Z VRB04KT 9999 BKN028 16/11 Q1021 NOSIG RMK RWY24R 11009KT RWY06R 22004KT 160V270 RWY24L 08010KT 060V120=
202411111250 METAR LTFJ 111250Z 19005KT 150V240 9999 BKN028 16/11 Q1021 NOSIG=
202411111220 METAR LTFJ 111220Z 19004KT 150V230 9999 BKN028 16/11 Q1021 NOSIG=
202411111150 METAR LTFJ 111150Z VRB04KT 9999 BKN028 17/11 Q1021 NOSIG=
202411111120 METAR LTFJ 111120Z 08008KT 9999 BKN026 17/09 Q1021 NOSIG=
202411111050 METAR LTFJ 111050Z 06006KT 020V100 9999 BKN024 17/11 Q1021 NOSIG RMK RWY24R 08006KT 030V120 RWY06R 06006KT 020V100 RWY24L 06007KT 040V100=
202411111020 METAR LTFJ 111020Z 04007KT 360V090 9999 SCT010 BKN025 16/11 Q1022 NOSIG=
202411110950 METAR LTFJ 110950Z 06006KT 020V100 9999 SCT010 BKN025 16/11 Q1022 NOSIG=
202411110920 METAR LTFJ 110920Z VRB04KT 9999 SCT010 BKN025 16/11 Q1022 NOSIG=
202411110850 METAR LTFJ 110850Z 05006KT 010V090 9999 SCT010 BKN025 16/10 Q1022 NOSIG=
202411110820 METAR LTFJ 110820Z 06005KT 020V100 9999 SCT010 BKN025 15/11 Q1022 NOSIG=
202411110750 METAR LTFJ 110750Z 09003KT 9999 SCT010 BKN025 14/11 Q1022 NOSIG=
202411110720 METAR LTFJ 110720Z 08003KT 350V140 9999 SCT010 BKN025 14/11 Q1022 NOSIG=
202411110650 METAR LTFJ 110650Z 07004KT 030V100 9999 SCT010 BKN025 13/11 Q1022 NOSIG=
202411110620 METAR LTFJ 110620Z 06005KT 9999 SCT010 BKN025 13/11 Q1022 NOSIG=
202411110550 METAR LTFJ 110550Z 06004KT 020V080 9999 SCT010 BKN035 12/11 Q1022 NOSIG=
202411110520 METAR LTFJ 110520Z 08005KT 9999 SCT009 BKN035 12/10 Q1022 NOSIG=
202411110450 METAR LTFJ 110450Z 08004KT 9999 SCT009 BKN035 12/10 Q1022 NOSIG=
202411110420 METAR LTFJ 110420Z 07004KT 020V090 9999 SCT009 BKN035 12/10 Q1022 NOSIG=
202411110350 METAR LTFJ 110350Z 05005KT 010V080 9999 SCT009 BKN035 11/10 Q1021 NOSIG=
202411110320 METAR LTFJ 110320Z 05005KT 9999 SCT011 BKN035 11/10 Q1021 NOSIG=
202411110250 METAR LTFJ 110250Z 07005KT 9999 SCT009 BKN035 09/08 Q1021 NOSIG RMK RWY24R 07003KT RWY06R 05006KT RWY24L 05003KT 300V100=
202411110220 METAR LTFJ 110220Z 07004KT 030V090 9999 SCT011 BKN035 10/09 Q1021 NOSIG=
202411110150 METAR LTFJ 110150Z 01006KT 340V050 9999 SCT011 BKN035 12/10 Q1021 NOSIG=
202411110120 METAR LTFJ 110120Z 03006KT 9999 SCT013 BKN035 11/10 Q1021 NOSIG=
202411110050 METAR LTFJ 110050Z 03005KT 9999 SCT010 BKN035 11/10 Q1021 NOSIG RMK RWY24R 08003KT RWY06R 06005KT RWY24L 06005KT=
202411110020 METAR LTFJ 110020Z 02008KT 9999 SCT011 BKN035 12/10 Q1021 NOSIG=
